IRIDIUM 136             
1 42962U 17061H   24216.56859686  .00000098  00000+0  27812-4 0  9996
2 42962  86.3991 310.5189 0002601  97.0128 263.1364 14.34218150356990
